     2.100          NAVIGATION                              RINEX VERSION / TYPE
fic2rin                                 06/27/2009 01:22:54 PGM / RUN BY / DATE
                                                            END OF HEADER
31 09  6 26  4  0  0.0 -.629364512861D-04 -.568434188608D-12  .000000000000D+00
     .430000000000D+02  .159687500000D+02  .441875548747D-08  .150927618892D+01
     .864267349243D-06  .700692250393D-02  .190362334251D-05  .515373405838D+04
     .446400000000D+06  .106170773506D-06  .224126424753D+01 -.894069671631D-07
     .973052635594D+00  .346562500000D+03 -.113728696699D+01 -.833499004293D-08
     .244295890190D-09  .100000000000D+01  .153700000000D+04  .000000000000D+00
     .240000000000D+01  .000000000000D+00 -.130385160446D-07  .430000000000D+02
     .439206000000D+06  .400000000000D+01
32 09  6 26  4  0  0.0  .241521745920D-03 -.579802872380D-11  .000000000000D+00
     .410000000000D+02 -.859375000000D+01  .427946397114D-08  .245981940288D+01
    -.372529029846D-06  .132180575747D-01  .988505780697D-05  .515379351807D+04
     .446400000000D+06  .111758708954D-06  .233331043426D+00  .577419996262D-07
     .963963019398D+00  .186437500000D+03 -.114908415197D+01 -.767674833881D-08
    -.719672834405D-09  .100000000000D+01  .153700000000D+04  .000000000000D+00
     .240000000000D+01  .000000000000D+00 -.325962901115D-08  .410000000000D+02
     .439206000000D+06  .400000000000D+01
 8 09  6 26  3 59 44.0 -.209238845855D-03 -.159161572810D-11  .000000000000D+00
     .430000000000D+02 -.646875000000D+01  .408374153280D-08  .973447379168D+00
    -.309199094772D-06  .106540191919D-01  .159069895744D-05  .515363905334D+04
     .446384000000D+06  .189989805222D-06  .230422730393D+01  .212341547012D-06
     .988931161592D+00  .362812500000D+03  .299451097962D+01 -.818891252965D-08
     .939324840936D-10  .100000000000D+01  .153700000000D+04  .000000000000D+00
     .240000000000D+01  .000000000000D+00 -.372529029846D-08  .430000000000D+02
     .439956000000D+06  .400000000000D+01
30 09  6 26  3 59 44.0  .156389549375D-03  .272848410532D-11  .000000000000D+00
     .200000000000D+01 -.129156250000D+03  .489448958942D-08 -.840469323892D+00
    -.654160976410D-05  .115553574869D-01  .773370265961D-05  .515358089828D+04
     .446384000000D+06 -.838190317154D-07 -.303607136312D+01  .139698386192D-06
     .952731900331D+00  .232343750000D+03  .142136998428D+01 -.850249702027D-08
    -.122862260563D-09  .100000000000D+01  .153700000000D+04  .000000000000D+00
     .240000000000D+01  .000000000000D+00 -.838190317154D-08  .200000000000D+01
     .440736000000D+06  .400000000000D+01
29 09  6 26  3 59 44.0  .337134115398D-04  .363797880709D-11  .000000000000D+00
     .160000000000D+02 -.956250000000D+01  .465590822298D-08  .722545475388D+00
    -.413507223129D-06  .338913616724D-02  .116750597954D-04  .515366298676D+04
     .446384000000D+06 -.409781932831D-07 -.192057314189D+01  .931322574615D-08
     .959739121398D+00  .156500000000D+03 -.130650075407D+01 -.799176146037D-08
     .555380276675D-09  .100000000000D+01  .153700000000D+04  .000000000000D+00
     .240000000000D+01  .000000000000D+00 -.884756445885D-08  .160000000000D+02
     .442476000000D+06  .400000000000D+01
23 09  6 26  3 59 44.0  .390197616071D-03  .000000000000D+00  .000000000000D+00
     .100000000000D+01  .104343750000D+03  .394945022474D-08 -.300895923109D+01
     .543706119061D-05  .624883768614D-02  .890344381332D-05  .515360590363D+04
     .446384000000D+06 -.521540641785D-07  .120088408573D+01  .204890966415D-07
     .970197102889D+00  .213406250000D+03  .289996487655D+01 -.781461122421D-08
     .138577200868D-09  .100000000000D+01  .153700000000D+04  .000000000000D+00
     .240000000000D+01  .000000000000D+00 -.200234353542D-07  .100000000000D+01
     .443076000000D+06  .400000000000D+01
32 09  6 26  3 59 44.0  .241522211581D-03 -.579802872380D-11  .000000000000D+00
     .420000000000D+02 -.859375000000D+01  .427946397114D-08  .245748556578D+01
    -.374391674995D-06  .132180642104D-01  .988505780697D-05  .515379352760D+04
     .446384000000D+06  .111758708954D-06  .233331170700D+00  .577419996262D-07
     .963963022323D+00  .186437500000D+03 -.114908395447D+01 -.767710549654D-08
    -.719315676671D-09  .100000000000D+01  .153700000000D+04  .000000000000D+00
     .240000000000D+01  .000000000000D+00 -.325962901115D-08  .420000000000D+02
     .443886000000D+06  .400000000000D+01
24 09  6 26  3 59 44.0  .199720729142D-03  .295585778076D-11  .000000000000D+00
     .000000000000D+00  .131875000000D+02  .540701093799D-08 -.630937308271D+00
     .767409801483D-06  .666231603827D-02  .529363751411D-05  .515366520309D+04
     .446384000000D+06 -.372529029846D-08 -.848331012003D+00 -.838190317154D-07
     .950275072783D+00  .273375000000D+03 -.651940638184D+00 -.855428489173D-08
     .392873507616D-11  .100000000000D+01  .153700000000D+04  .000000000000D+00
     .240000000000D+01  .000000000000D+00 -.139698386192D-08  .000000000000D+00
     .445236000000D+06  .400000000000D+01
 8 09  6 26  5 59 44.0 -.209250021726D-03 -.159161572810D-11  .000000000000D+00
     .102000000000D+03  .312500000000D+00  .402231040252D-08  .202350257747D+01
     .633299350739D-07  .106542928843D-01  .212341547012D-05  .515364195442D+04
     .453584000000D+06 -.558793544769D-08  .230416921145D+01  .176951289177D-06
     .988931416140D+00  .353843750000D+03  .299465303774D+01 -.812355266429D-08
    -.714315468392D-11  .100000000000D+01  .153700000000D+04  .000000000000D+00
     .240000000000D+01  .000000000000D+00 -.372529029846D-08  .102000000000D+03
     .446406000000D+06  .400000000000D+01
23 09  6 26  5 59 44.0  .390197150409D-03  .000000000000D+00  .000000000000D+00
     .150000000000D+02  .907187500000D+02  .403195366134D-08 -.195900144119D+01
     .466965138912D-05  .625126203522D-02  .979006290436D-05  .515360043144D+04
     .453584000000D+06 -.651925802231D-07  .120082760247D+01 -.186264514923D-07
     .970197999658D+00  .197218750000D+03  .290022758299D+01 -.784854120896D-08
     .151434879299D-09  .100000000000D+01  .153700000000D+04  .000000000000D+00
     .240000000000D+01  .000000000000D+00 -.200234353542D-07  .150000000000D+02
     .446406000000D+06  .400000000000D+01
24 09  6 26  5 59 44.0  .199742149562D-03  .295585778076D-11  .000000000000D+00
     .340000000000D+02  .135312500000D+02  .543772650314D-08  .419243914575D+00
     .661239027977D-06  .666227948386D-02  .524148344994D-05  .515366511726D+04
     .453584000000D+06  .298023223877D-07 -.848392602317D+00 -.968575477600D-07
     .950275061079D+00  .274437500000D+03 -.651929126482D+00 -.855178478759D-08
    -.535736601294D-11  .100000000000D+01  .153700000000D+04  .000000000000D+00
     .240000000000D+01  .000000000000D+00 -.139698386192D-08  .340000000000D+02
     .446406000000D+06  .400000000000D+01
29 09  6 26  5 59 44.0  .337394885719D-04  .363797880709D-11  .000000000000D+00
     .170000000000D+02 -.103125000000D+01  .461840666089D-08  .177294499926D+01
    -.242143869400D-07  .338834687136D-02  .119954347610D-04  .515366124916D+04
     .453584000000D+06  .577419996262D-07 -.192063034637D+01 -.745058059692D-08
     .959743618408D+00  .150687500000D+03 -.130671070623D+01 -.788782855972D-08
     .560023327219D-09  .100000000000D+01  .153700000000D+04  .000000000000D+00
     .240000000000D+01  .000000000000D+00 -.884756445885D-08  .170000000000D+02
     .446406000000D+06  .400000000000D+01
30 09  6 26  5 59 44.0  .156409107149D-03  .272848410532D-11  .000000000000D+00
     .330000000000D+02 -.119437500000D+03  .471912514193D-08  .209817031562D+00
    -.646524131298D-05  .115569387563D-01  .783801078796D-05  .515358411789D+04
     .453584000000D+06 -.156462192535D-06 -.303613228488D+01  .428408384323D-07
     .952730915787D+00  .225781250000D+03  .142132213077D+01 -.848928218411D-08
    -.188936441390D-09  .100000000000D+01  .153700000000D+04  .000000000000D+00
     .240000000000D+01  .000000000000D+00 -.838190317154D-08  .330000000000D+02
     .446406000000D+06  .400000000000D+01
32 09  6 26  5 59 44.0  .241480767727D-03 -.579802872380D-11  .000000000000D+00
     .510000000000D+02 -.706250000000D+01  .430625080120D-08 -.277559815688D+01
    -.353902578354D-06  .132182146190D-01  .994838774204D-05  .515379326248D+04
     .453584000000D+06  .912696123123D-07  .233275772918D+00  .124797224998D-06
     .963958010366D+00  .186625000000D+03 -.114907946770D+01 -.767496255014D-08
    -.685028534188D-09  .100000000000D+01  .153700000000D+04  .000000000000D+00
     .240000000000D+01  .000000000000D+00 -.325962901115D-08  .510000000000D+02
     .446406000000D+06  .400000000000D+01
 1 09  6 26  6  0  0.0 -.720438547432D-04  .477484718431D-11  .000000000000D+00
     .250000000000D+02 -.122750000000D+03  .572202405956D-08  .686414623101D+00
    -.661611557007D-05  .354936311487D-02  .822730362415D-05  .515376192284D+04
     .453600000000D+06  .186264514923D-08 -.300020080199D+01  .633299350739D-07
     .961539351814D+00  .220687500000D+03  .913099944221D+00 -.821141346690D-08
    -.182150444440D-09  .100000000000D+01  .153700000000D+04  .000000000000D+00
     .240000000000D+01  .630000000000D+02 -.130385160446D-07  .250000000000D+02
     .446406000000D+06  .400000000000D+01
 2 09  6 26  6  0  0.0  .157601200044D-03  .136424205266D-11  .000000000000D+00
     .290000000000D+02  .190312500000D+02  .562344852492D-08 -.185192853299D+01
     .102445483208D-05  .905148766469D-02  .512786209583D-05  .515366417313D+04
     .453600000000D+06 -.949949026108D-07 -.912328762566D+00 -.234693288803D-06
     .940863057237D+00  .270437500000D+03  .285033407579D+01 -.864393148301D-08
     .660741808263D-10  .100000000000D+01  .153700000000D+04  .000000000000D+00
     .240000000000D+01  .000000000000D+00 -.172294676304D-07  .290000000000D+02
     .446406000000D+06  .400000000000D+01
